{"generatedAt":"2026-03-31T07:25:26.472389Z","satellites":[{"name":"KUIPER-00070","tle1":"1 64817C 25151B   26090.23437500  .00009882  00000+0  12934-2 0   900","tle2":"2 64817  51.8989 210.2887 0000720  88.8655 119.1199 14.79925299    14"},{"name":"KUIPER-00071","tle1":"1 64818C 25151C   26090.23550926  .00009216  00000+0  12049-2 0   907","tle2":"2 64818  51.9005 207.8082 0000521  60.2047 139.7126 14.79971661    14"},{"name":"KUIPER-00072","tle1":"1 64819C 25151D   26090.16226852  .00009716  00000+0  12706-2 0   903","tle2":"2 64819  51.8971 188.1115 0000823  79.5856 154.7866 14.79960809    10"},{"name":"KUIPER-00073","tle1":"1 64820C 25151E   26090.20915509 -.00009690  00000+0 -12684-2 0   902","tle2":"2 64820  51.8996 207.9161 0000628 101.3232 137.7241 14.79943573    12"},{"name":"KUIPER-00074","tle1":"1 64821C 25151F   26090.22476852  .01427200  00000+0  15526-1 0   905","tle2":"2 64821  51.8981 185.3873 0004791  40.7814 217.8520 15.61342243    12"},{"name":"KUIPER-00075","tle1":"1 64822C 25151G   26090.20219907  .00008949  00000+0  20477-3 0   907","tle2":"2 64822  51.8679 117.0383 0004527  11.4010 196.4295 15.42173669    19"},{"name":"KUIPER-00076","tle1":"1 64823C 25151H   26090.21435185  .00008787  00000+0  11506-2 0   909","tle2":"2 64823  51.9004 197.9074 0000580  97.3610 111.9398 14.79908690    16"},{"name":"KUIPER-00077","tle1":"1 64824C 25151J   26090.21395833  .00010187  00000+0  13337-2 0   906","tle2":"2 64824  51.9008 202.9218 0000599  79.2309 156.6727 14.79915403    14"},{"name":"KUIPER-00078","tle1":"1 64825C 25151K   26090.20010417  .00008861  00000+0  11597-2 0   900","tle2":"2 64825  51.8999 200.4698 0000634  95.4596 232.1997 14.79928888    16"},{"name":"KUIPER-00079","tle1":"1 64826C 25151L   26090.21187500  .00010571  00000+0  13846-2 0   900","tle2":"2 64826  51.8987 205.3901 0000735  95.0868 144.3429 14.79896700    16"},{"name":"KUIPER-00080","tle1":"1 64827C 25151M   26090.23809028  .00006326  00000+0  82787-3 0   903","tle2":"2 64827  51.8991 205.2819 0000681  96.1009 102.8419 14.79932925    16"},{"name":"KUIPER-00082","tle1":"1 64828C 25151N   26090.15598380  .00008469  00000+0  11087-2 0   905","tle2":"2 64828  51.9009 193.1806 0000611  78.3915 151.0370 14.79920757    12"},{"name":"KUIPER-00083","tle1":"1 64829C 25151P   26090.21119213  .00002274  00000+0  29762-3 0   905","tle2":"2 64829  51.9005 200.4243 0000587  95.0471 111.7440 14.79944025    16"},{"name":"KUIPER-00084","tle1":"1 64830C 25151Q   26090.20493056  .00008550  00000+0  11192-2 0   906","tle2":"2 64830  51.9003 210.4364 0000584 100.2037 130.7519 14.79920556    16"},{"name":"KUIPER-00085","tle1":"1 64831C 25151R   26090.13759259 -.00009867  00000+0 -12912-2 0   904","tle2":"2 64831  51.9025 193.2924 0000607  81.9117 229.3637 14.79952471    18"},{"name":"KUIPER-00086","tle1":"1 64832C 25151S   26090.17964120 -.00016972  00000+0 -22219-2 0   900","tle2":"2 64832  51.9006 203.0726 0000618  77.6613 155.3140 14.79944924    14"},{"name":"KUIPER-00087","tle1":"1 64833C 25151T   26090.12995370  .00008059  00000+0  10546-2 0   902","tle2":"2 64833  51.8993 185.7703 0000667  63.7740 163.7736 14.79938009    12"},{"name":"KUIPER-00089","tle1":"1 64834C 25151U   26090.19488426  .00009157  00000+0  11988-2 0   900","tle2":"2 64834  51.9001 190.4953 0000566  92.0504 150.2938 14.79917050    13"},{"name":"KUIPER-00090","tle1":"1 64835C 25151V   26090.13413194  .00008417  00000+0  11019-2 0   908","tle2":"2 64835  51.8980 183.2912 0000632  68.8244 166.5977 14.79917700    15"},{"name":"KUIPER-00091","tle1":"1 64836C 25151W   26090.12755787  .00008380  00000+0  10967-2 0   905","tle2":"2 64836  51.9009 188.3020 0000470  86.4879 142.6576 14.79934894    18"},{"name":"KUIPER-00092","tle1":"1 64837C 25151X   26090.19005787  .00010148  00000+0  13278-2 0   904","tle2":"2 64837  51.9002 195.5226 0000691  96.6063 148.7610 14.79939333    12"},{"name":"KUIPER-00093","tle1":"1 64838C 25151Y   26090.18548611  .00009648  00000+0  12628-2 0   903","tle2":"2 64838  51.8994 198.0229 0000727 105.2695 130.1158 14.79930080    13"},{"name":"KUIPER-00094","tle1":"1 64839C 25151Z   26090.07854167  .00001711  00000+0  12013-3 0   900","tle2":"2 64839  51.8887 164.0659 0006581  10.7798 223.4718 15.04597361    11"},{"name":"KUIPER-00081","tle1":"1 65132C 25171A   26090.18378472  .00007099  00000+0  92901-3 0   900","tle2":"2 65132  51.8999  53.0252 0001059  87.8913 204.7329 14.79938652    10"},{"name":"KUIPER-00088","tle1":"1 65133C 25171B   26090.23539352  .00006114  00000+0  80040-3 0   901","tle2":"2 65133  51.8986  70.3034 0000887  75.9767 232.4150 14.79920857    18"},{"name":"KUIPER-00095","tle1":"1 65134C 25171C   26090.18936343  .00008518  00000+0  11144-2 0   905","tle2":"2 65134  51.8978  50.5715 0000819 133.0218 175.1834 14.79944880    12"},{"name":"KUIPER-00096","tle1":"1 65135C 25171D   26090.09443287 -.00005814  00000+0 -76093-3 0   909","tle2":"2 65135  51.8986  63.4272 0000940  84.8957 328.9056 14.79944958    11"},{"name":"KUIPER-00097","tle1":"1 65136C 25171E   26090.20682870  .00005984  00000+0  78330-3 0   908","tle2":"2 65136  51.9007  65.5637 0000864  89.7432 217.5558 14.79928146    13"},{"name":"KUIPER-00098","tle1":"1 65137C 25171F   26090.23299769  .00007085  00000+0  92683-3 0   904","tle2":"2 65137  51.8997  67.8227 0000729  33.9254  67.8182 14.79952975    10"},{"name":"KUIPER-00099","tle1":"1 65138C 25171G   26090.21017361  .00007458  00000+0  97629-3 0   908","tle2":"2 65138  51.9019  57.9122 0001030  81.4160  20.7090 14.79922659    13"},{"name":"KUIPER-00100","tle1":"1 65139C 25171H   26090.21853009  .00009618  00000+0  12593-2 0   902","tle2":"2 65139  51.9011  55.3539 0000647  89.2962 222.9779 14.79911816    12"},{"name":"KUIPER-00102","tle1":"1 65140C 25171J   26090.21517361  .00008753  00000+0  11446-2 0   907","tle2":"2 65140  51.8979  57.8871 0000923  58.9363 250.1314 14.79967459    19"},{"name":"KUIPER-00103","tle1":"1 65141C 25171K   26090.22824074  .00004965  00000+0  64996-3 0   901","tle2":"2 65141  51.8977  75.3221 0000489  83.7673 215.2393 14.79922893    11"},{"name":"KUIPER-00104","tle1":"1 65142C 25171L   26090.01988426  .00002925  00000+0  38225-3 0   901","tle2":"2 65142  51.9012  63.7136 0001157  57.7847 138.2952 14.80000737    17"},{"name":"KUIPER-00105","tle1":"1 65143C 25171M   26090.04732639  .00002124  00000+0  27798-3 0   902","tle2":"2 65143  51.8992  71.2162 0000493 125.0233  77.0169 14.79938941    12"},{"name":"KUIPER-00106","tle1":"1 65144C 25171N   26090.22370370  .00002553  00000+0  21735-3 0   904","tle2":"2 65144  51.8931  57.1196 0007346 166.8513 301.7449 14.97277540    13"},{"name":"KUIPER-00107","tle1":"1 65145C 25171P   26090.22165509  .00010215  00000+0  13382-2 0   903","tle2":"2 65145  51.9004  52.8765 0000876  96.9237 217.8007 14.79886004    15"},{"name":"KUIPER-00108","tle1":"1 65146C 25171Q   26090.01711806  .00002433  00000+0  31857-3 0   909","tle2":"2 65146  51.9013  66.3014 0000640  70.8655 125.1487 14.79919050    18"},{"name":"KUIPER-00109","tle1":"1 65147C 25171R   26090.21228009  .00007834  00000+0  10255-2 0   908","tle2":"2 65147  51.9015  60.3807 0000843  76.9454 230.7565 14.79924648    13"},{"name":"KUIPER-00110","tle1":"1 65148C 25171S   26090.07753472 -.00000036  00000+0 -47374-5 0   904","tle2":"2 65148  51.8987  73.5592 0000550 327.5501 233.1503 14.79887071    18"},{"name":"KUIPER-00111","tle1":"1 65149C 25171T   26090.07822917  .00000262  00000+0  34295-4 0   902","tle2":"2 65149  51.8958  78.4615 0000538  40.7131  12.6100 14.79973716    11"},{"name":"KUIPER-00112","tle1":"1 65150C 25171U   26090.06285880  .00002738  00000+0  35850-3 0   902","tle2":"2 65150  51.9011  61.0946 0000757  94.4119 316.6818 14.79923773    15"},{"name":"KUIPER-00114","tle1":"1 65151C 25171V   26090.07263889 -.00000573  00000+0 -74968-4 0   900","tle2":"2 65151  51.8981  81.0456 0000695  70.8417 327.3879 14.79931351    16"},{"name":"KUIPER-00115","tle1":"1 65152C 25171W   26090.04104167  .00002723  00000+0  35637-3 0   907","tle2":"2 65152  51.8993  73.6751 0000850  60.4320 126.2503 14.79941774    16"},{"name":"KUIPER-00116","tle1":"1 65153C 25171X   26090.08263889  .00001437  00000+0  18817-3 0   901","tle2":"2 65153  51.8989  78.5291 0000667  16.0348 240.8841 14.79926593    18"},{"name":"KUIPER-00118","tle1":"1 65154C 25171Y   26090.07785880  .00001450  00000+0  18981-3 0   908","tle2":"2 65154  51.8984  81.0065 0000616  85.6143 160.4530 14.79925757    14"},{"name":"KUIPER-00119","tle1":"1 65155C 25171Z   26090.23721065  .00002305  00000+0  30098-3 0   905","tle2":"2 65155  51.8996  67.8818 0000758  99.3598 206.5917 14.80032996    16"},{"name":"KUIPER-00120","tle1":"1 65762C 25217A   26090.14001157  .00010532  00000+0  13802-2 0   907","tle2":"2 65762  51.8987 318.2152 0000773 105.7940 217.8157 14.79875754    10"},{"name":"KUIPER-00132","tle1":"1 65763C 25217B   26090.21398148  .00011423  00000+0  27555-3 0   906","tle2":"2 65763  51.8561 258.9465 0006560  46.2786 249.5557 15.40570228    16"},{"name":"KUIPER-00133","tle1":"1 65764C 25217C   26090.17555556  .00008638  00000+0  11319-2 0   904","tle2":"2 65764  51.9035 318.1194 0001696  94.8861 238.0542 14.79879274    11"},{"name":"KUIPER-00139","tle1":"1 65765C 25217D   26090.10914352  .00004392  00000+0  33012-3 0   909","tle2":"2 65765  51.8843 295.7287 0008100  24.5223 201.4980 15.02036466    15"},{"name":"KUIPER-00142","tle1":"1 65766C 25217E   26090.05737269  .00010538  00000+0  13795-2 0   908","tle2":"2 65766  51.8985 301.1042 0000741  91.3279  50.5272 14.79919089    11"},{"name":"KUIPER-00145","tle1":"1 65767C 25217F   26090.06853009  .00009867  00000+0  12930-2 0   904","tle2":"2 65767  51.8991 303.5695 0000745  97.8857 118.3351 14.79878900    13"},{"name":"KUIPER-00147","tle1":"1 65768C 25217G   26090.19196759  .00007035  00000+0  92117-3 0   902","tle2":"2 65768  51.8983 305.5172 0000738 121.8284 226.4940 14.79913450    16"}]}